[{"OBJECT_NAME":"YAOGAN-50 02","OBJECT_ID":"2026-051A","EPOCH":"2026-04-14T07:39:12.984192","MEAN_MOTION":13.83262794,"ECCENTRICITY":7.287e-5,"INCLINATION":141.986,"RA_OF_ASC_NODE":19.1562,"ARG_OF_PERICENTER":260.3583,"MEAN_ANOMALY":99.7054,"EPHEMERIS_TYPE":0,"CLASSIFICATION_TYPE":"U","NORAD_CAT_ID":68196,"ELEMENT_SET_NO":999,"REV_AT_EPOCH":414,"BSTAR":7.2153819e-5,"MEAN_MOTION_DOT":2.66e-6,"MEAN_MOTION_DDOT":0},{"OBJECT_NAME":"2026-052A","OBJECT_ID":"2026-052A","EPOCH":"2026-04-14T07:25:20.756928","MEAN_MOTION":15.10188246,"ECCENTRICITY":0.00144289,"INCLINATION":97.5351,"RA_OF_ASC_NODE":180.0898,"ARG_OF_PERICENTER":162.3009,"MEAN_ANOMALY":197.8726,"EPHEMERIS_TYPE":0,"CLASSIFICATION_TYPE":"U","NORAD_CAT_ID":68198,"ELEMENT_SET_NO":999,"REV_AT_EPOCH":440,"BSTAR":0.00022195408,"MEAN_MOTION_DOT":3.569e-5,"MEAN_MOTION_DDOT":0},{"OBJECT_NAME":"YUXING-3 06","OBJECT_ID":"2026-052B","EPOCH":"2026-04-14T07:21:27.208224","MEAN_MOTION":15.10286111,"ECCENTRICITY":0.00134331,"INCLINATION":97.5352,"RA_OF_ASC_NODE":180.0929,"ARG_OF_PERICENTER":163.3093,"MEAN_ANOMALY":196.8581,"EPHEMERIS_TYPE":0,"CLASSIFICATION_TYPE":"U","NORAD_CAT_ID":68199,"ELEMENT_SET_NO":999,"REV_AT_EPOCH":440,"BSTAR":0.00016009576,"MEAN_MOTION_DOT":2.562e-5,"MEAN_MOTION_DDOT":0},{"OBJECT_NAME":"2026-052C","OBJECT_ID":"2026-052C","EPOCH":"2026-04-13T05:51:43.695936","MEAN_MOTION":15.10380572,"ECCENTRICITY":0.0013087,"INCLINATION":97.5345,"RA_OF_ASC_NODE":179.0533,"ARG_OF_PERICENTER":168.8615,"MEAN_ANOMALY":191.2907,"EPHEMERIS_TYPE":0,"CLASSIFICATION_TYPE":"U","NORAD_CAT_ID":68200,"ELEMENT_SET_NO":999,"REV_AT_EPOCH":423,"BSTAR":0.00017193,"MEAN_MOTION_DOT":2.764e-5,"MEAN_MOTION_DDOT":0},{"OBJECT_NAME":"2026-052D","OBJECT_ID":"2026-052D","EPOCH":"2026-04-14T02:25:55.529760","MEAN_MOTION":15.10673217,"ECCENTRICITY":0.00129922,"INCLINATION":97.5381,"RA_OF_ASC_NODE":179.9019,"ARG_OF_PERICENTER":163.7733,"MEAN_ANOMALY":196.3916,"EPHEMERIS_TYPE":0,"CLASSIFICATION_TYPE":"U","NORAD_CAT_ID":68201,"ELEMENT_SET_NO":999,"REV_AT_EPOCH":437,"BSTAR":0.000174838,"MEAN_MOTION_DOT":2.834e-5,"MEAN_MOTION_DDOT":0},{"OBJECT_NAME":"2026-052E","OBJECT_ID":"2026-052E","EPOCH":"2026-04-14T07:12:04.121280","MEAN_MOTION":15.10686846,"ECCENTRICITY":0.00114978,"INCLINATION":97.5319,"RA_OF_ASC_NODE":180.1031,"ARG_OF_PERICENTER":164.5594,"MEAN_ANOMALY":195.5988,"EPHEMERIS_TYPE":0,"CLASSIFICATION_TYPE":"U","NORAD_CAT_ID":68202,"ELEMENT_SET_NO":999,"REV_AT_EPOCH":440,"BSTAR":0.00042390279,"MEAN_MOTION_DOT":6.967e-5,"MEAN_MOTION_DDOT":0},{"OBJECT_NAME":"2026-052F","OBJECT_ID":"2026-052F","EPOCH":"2026-04-14T07:04:59.187936","MEAN_MOTION":15.10935692,"ECCENTRICITY":0.00114941,"INCLINATION":97.535,"RA_OF_ASC_NODE":180.1114,"ARG_OF_PERICENTER":159.1644,"MEAN_ANOMALY":201.0057,"EPHEMERIS_TYPE":0,"CLASSIFICATION_TYPE":"U","NORAD_CAT_ID":68203,"ELEMENT_SET_NO":999,"REV_AT_EPOCH":440,"BSTAR":0.00025902701,"MEAN_MOTION_DOT":4.26e-5,"MEAN_MOTION_DDOT":0},{"OBJECT_NAME":"2026-052G","OBJECT_ID":"2026-052G","EPOCH":"2026-04-14T07:03:39.936672","MEAN_MOTION":15.10982696,"ECCENTRICITY":0.00110011,"INCLINATION":97.5355,"RA_OF_ASC_NODE":180.1083,"ARG_OF_PERICENTER":161.7217,"MEAN_ANOMALY":198.4411,"EPHEMERIS_TYPE":0,"CLASSIFICATION_TYPE":"U","NORAD_CAT_ID":68204,"ELEMENT_SET_NO":999,"REV_AT_EPOCH":440,"BSTAR":0.00024390563,"MEAN_MOTION_DOT":4.012e-5,"MEAN_MOTION_DDOT":0},{"OBJECT_NAME":"2026-052J","OBJECT_ID":"2026-052J","EPOCH":"2026-04-14T07:28:44.940864","MEAN_MOTION":14.7045044,"ECCENTRICITY":0.05328834,"INCLINATION":97.3387,"RA_OF_ASC_NODE":178.0817,"ARG_OF_PERICENTER":278.1957,"MEAN_ANOMALY":75.917,"EPHEMERIS_TYPE":0,"CLASSIFICATION_TYPE":"U","NORAD_CAT_ID":68206,"ELEMENT_SET_NO":999,"REV_AT_EPOCH":428,"BSTAR":0.00053301402,"MEAN_MOTION_DOT":0.00036483,"MEAN_MOTION_DDOT":2.182247e-6},{"OBJECT_NAME":"STARLINK-36986","OBJECT_ID":"2026-053A","EPOCH":"2026-04-14T06:00:02.000160","MEAN_MOTION":15.4923647,"ECCENTRICITY":0.00025252,"INCLINATION":97.2854,"RA_OF_ASC_NODE":340.1681,"ARG_OF_PERICENTER":91.9822,"MEAN_ANOMALY":142.6142,"EPHEMERIS_TYPE":0,"CLASSIFICATION_TYPE":"U","NORAD_CAT_ID":68207,"ELEMENT_SET_NO":999,"REV_AT_EPOCH":573,"BSTAR":-0.0011778869,"MEAN_MOTION_DOT":-0.0006375,"MEAN_MOTION_DDOT":0},{"OBJECT_NAME":"STARLINK-37009","OBJECT_ID":"2026-053B","EPOCH":"2026-04-14T06:00:02.000160","MEAN_MOTION":15.49008251,"ECCENTRICITY":0.00016647,"INCLINATION":97.2853,"RA_OF_ASC_NODE":340.1941,"ARG_OF_PERICENTER":118.4055,"MEAN_ANOMALY":170.2913,"EPHEMERIS_TYPE":0,"CLASSIFICATION_TYPE":"U","NORAD_CAT_ID":68208,"ELEMENT_SET_NO":999,"REV_AT_EPOCH":573,"BSTAR":-0.046633665,"MEAN_MOTION_DOT":-0.0222304,"MEAN_MOTION_DDOT":0},{"OBJECT_NAME":"STARLINK-36948","OBJECT_ID":"2026-053C","EPOCH":"2026-04-14T06:00:02.000160","MEAN_MOTION":15.48911207,"ECCENTRICITY":0.00014301,"INCLINATION":97.2865,"RA_OF_ASC_NODE":340.201,"ARG_OF_PERICENTER":87.4265,"MEAN_ANOMALY":217.3852,"EPHEMERIS_TYPE":0,"CLASSIFICATION_TYPE":"U","NORAD_CAT_ID":68209,"ELEMENT_SET_NO":999,"REV_AT_EPOCH":562,"BSTAR":-0.046531963,"MEAN_MOTION_DOT":-0.02211913,"MEAN_MOTION_DDOT":0},{"OBJECT_NAME":"STARLINK-37119","OBJECT_ID":"2026-053D","EPOCH":"2026-04-14T06:00:02.000160","MEAN_MOTION":15.49049431,"ECCENTRICITY":0.00016811,"INCLINATION":97.2985,"RA_OF_ASC_NODE":340.2011,"ARG_OF_PERICENTER":119.7564,"MEAN_ANOMALY":196.6264,"EPHEMERIS_TYPE":0,"CLASSIFICATION_TYPE":"U","NORAD_CAT_ID":68210,"ELEMENT_SET_NO":999,"REV_AT_EPOCH":573,"BSTAR":-0.042120623,"MEAN_MOTION_DOT":-0.02033701,"MEAN_MOTION_DDOT":0},{"OBJECT_NAME":"STARLINK-37120","OBJECT_ID":"2026-053E","EPOCH":"2026-04-14T06:00:02.000160","MEAN_MOTION":15.49398234,"ECCENTRICITY":0.00018178,"INCLINATION":97.2985,"RA_OF_ASC_NODE":340.2053,"ARG_OF_PERICENTER":107.0562,"MEAN_ANOMALY":219.1876,"EPHEMERIS_TYPE":0,"CLASSIFICATION_TYPE":"U","NORAD_CAT_ID":68211,"ELEMENT_SET_NO":999,"REV_AT_EPOCH":571,"BSTAR":-0.040346493,"MEAN_MOTION_DOT":-0.01978647,"MEAN_MOTION_DDOT":0}]
