YAOGAN-50 02            
1 68196U 26051A   26104.31890028  .00000266  00000+0  72154-4 0  9994
2 68196 141.9860  19.1562 0000728 260.3583  99.7054 13.83262794  4147
2026-052A               
1 68198U 26052A   26104.30926802  .00003569  00000+0  22195-3 0  9994
2 68198  97.5351 180.0898 0014428 162.3009 197.8726 15.10188246  4402
YUXING-3 06             
1 68199U 26052B   26104.30656491  .00002562  00000+0  16010-3 0  9990
2 68199  97.5352 180.0929 0013433 163.3093 196.8581 15.10286111  4406
2026-052C               
1 68200U 26052C   26103.24425574  .00002764  00000+0  17193-3 0  9998
2 68200  97.5345 179.0533 0013087 168.8615 191.2907 15.10380572  4233
2026-052D               
1 68201U 26052D   26104.10133715  .00002834  00000+0  17484-3 0  9999
2 68201  97.5381 179.9019 0012992 163.7733 196.3916 15.10673217  4373
2026-052E               
1 68202U 26052E   26104.30004770  .00006967  00000+0  42390-3 0  9995
2 68202  97.5319 180.1031 0011497 164.5594 195.5988 15.10686846  4402
2026-052F               
1 68203U 26052F   26104.29512949  .00004260  00000+0  25903-3 0  9991
2 68203  97.5350 180.1114 0011494 159.1644 201.0057 15.10935692  4409
2026-052G               
1 68204U 26052G   26104.29421223  .00004012  00000+0  24391-3 0  9991
2 68204  97.5355 180.1083 0011001 161.7217 198.4411 15.10982696  4408
2026-052J               
1 68206U 26052J   26104.31163126  .00036483  21822-5  53301-3 0  9992
2 68206  97.3387 178.0817 0532883 278.1957  75.9170 14.70450440  4283
STARLINK-36986          
1 68207U 26053A   26104.25002315 -.00063750  00000+0 -11779-2 0  9999
2 68207  97.2854 340.1681 0002525  91.9822 142.6142 15.49236470  5734
STARLINK-37009          
1 68208U 26053B   26104.25002315 -.02223040  00000+0 -46634-1 0  9999
2 68208  97.2853 340.1941 0001664 118.4055 170.2913 15.49008251  5736
STARLINK-36948          
1 68209U 26053C   26104.25002315 -.02211913  00000+0 -46532-1 0  9993
2 68209  97.2865 340.2010 0001430  87.4265 217.3852 15.48911207  5623
STARLINK-37119          
1 68210U 26053D   26104.25002315 -.02033701  00000+0 -42121-1 0  9992
2 68210  97.2985 340.2011 0001681 119.7564 196.6264 15.49049431  5738
STARLINK-37120          
1 68211U 26053E   26104.25002315 -.01978647  00000+0 -40346-1 0  9996
2 68211  97.2985 340.2053 0001817 107.0562 219.1876 15.49398234  5710
